satname,norad_id,inclination_deg,eccentricity,mean_motion_rev_per_day,perigee_km,apogee_km,l1,l2
STARLINK-1316,45415,53.1552,0.0006173,15.37661505,448.8096214191037,457.24337587453283,1 45415U 20019BH  26150.18298070  .00069738  00000+0  18511-2 0  9990,2 45415  53.1552 108.5875 0006173  48.0236 312.1293 15.37661505342500
STARLINK-1286,45417,53.0453,0.0001187,15.63115645,377.86154823992365,379.4656126977279,1 45417U 20019BK  26150.87642524  .00063640  00000+0  68567-3 0  9998,2 45417  53.0453  93.3758 0001187 139.4504 220.6598 15.63115645343011
STARLINK-1308,45419,53.0455,0.0007944,15.64894896,368.1775208746303,378.90458696669975,1 45419U 20019BM  26150.33728062  .00060682  00000+0  60921-3 0  9992,2 45419  53.0455 115.5303 0007944  21.2931 338.8412 15.64894896342409
STARLINK-1329,45531,53.0432,0.0004271,15.71915836,350.5468260409125,356.29692363179856,1 45531U 20025A   26150.11339905  .00081550  00000+0  61198-3 0  9998,2 45531  53.0432  40.8154 0004271 112.8868 247.2601 15.71915836338212
STARLINK-1338,45532,53.0455,0.000394,15.66936515,365.01725717842965,370.3329571188624,1 45532U 20025B   26150.68339470  .00058098  00000+0  53852-3 0  9997,2 45532  53.0455  44.3185 0003940  80.3349 279.8111 15.66936515338214
STARLINK-1350,45535,53.0728,0.0001613,15.38054437,450.76131638274364,452.96467438125455,1 45535U 20025E   26150.84565019  .00012820  00000+0  34708-3 0  9990,2 45535  53.0728   6.7118 0001613  84.1097 276.0090 15.38054437338796
STARLINK-1362,45538,53.1575,0.0003585,15.3622857,454.823241732558,459.72423123061435,1 45538U 20025H   26150.80281593 -.00134147  00000+0 -37997-2 0  9992,2 45538  53.1575  77.9660 0003585  88.6254 271.5160 15.36228570337770
STARLINK-1368,45540,53.1564,0.0004563,15.36528719,453.26495269720635,459.5021361460449,1 45540U 20025K   26150.81632373  .00056780  00000+0  15683-2 0  9994,2 45540  53.1564  78.2686 0004563  96.2424 263.9100 15.36528719337760
STARLINK-1371,45542,53.0448,0.0005585,15.60513995,382.39347533723503,389.949207754742,1 45542U 20025M   26150.75148961  .00106664  00000+0  12592-2 0  9997,2 45542  53.0448  53.3066 0005585  98.4089 261.7557 15.60513995338090
STARLINK-1372,45543,53.1579,0.0003951,15.37053226,452.12893462959073,457.52834407780756,1 45543U 20025N   26150.77762306  .00056671  00000+0  15392-2 0  9998,2 45543  53.1579  77.9789 0003951  87.1708 272.9748 15.37053226336868
STARLINK-1373,45544,53.0469,0.000379,15.68749467,359.9221379509763,365.0315232345647,1 45544U 20025P   26150.71172245  .00065086  00000+0  55936-3 0  9999,2 45544  53.0469  49.5325 0003790  57.9544 302.1839 15.68749467338144
STARLINK-1327,45555,53.0419,0.0004629,15.66309566,366.3516214371293,372.59856071104605,1 45555U 20025AA  26150.80476546  .00055923  00000+0  53187-3 0  9997,2 45555  53.0419  26.0889 0004629  60.0478 300.0996 15.66309566338476
STARLINK-1356,45564,53.0441,0.0001141,15.62419275,379.89992125587105,381.442281264578,1 45564U 20025AK  26150.83335647  .01191927  00000+0  11849-1 0  9999,2 45564  53.0441  38.9776 0001141  87.5578  12.7422 15.62419275  5803
STARLINK-1357,45565,53.0454,0.000637,15.68415588,359.1390290049749,367.72778970649415,1 45565U 20025AL  26150.80683933  .00064743  00000+0  56376-3 0  9991,2 45565  53.0454 356.0905 0006370  98.5491 261.6246 15.68415588338909
STARLINK-1361,45567,53.0441,6.72e-05,15.60889924,384.63071972705893,385.53969679184956,1 45567U 20025AN  26150.86042102  .00104034  00000+0  12118-2 0  9999,2 45567  53.0441  36.9719 0000672 120.5953 239.5126 15.60889924338331
STARLINK-1363,45568,53.0236,0.0010599,16.22327561,206.25367170892696,220.2260724023099,1 45568U 20025AP  26150.52863920  .01826407  11877-4  75580-3 0  9990,2 45568  53.0236 339.9835 0010599 280.1229  79.8614 16.22327561339080
STARLINK-1366,45569,53.0299,0.0007589,16.08120422,246.9728754546286,257.0361042078939,1 45569U 20025AQ  26150.59251516  .00698003  26333-3  81522-3 0  9993,2 45569  53.0299 342.5290 0007589 284.1096  75.9093 16.08120422339052
STARLINK-1376,45570,53.1575,0.0004962,15.37404067,450.3990602845952,457.1790637085196,1 45570U 20025AR  26150.75620855  .00056139  00000+0  15077-2 0  9997,2 45570  53.1575  54.5010 0004962  86.1915 273.9656 15.37404067338093
STARLINK-1320,45572,53.0428,0.0006551,15.84123107,314.4078328560827,323.1821531533169,1 45572U 20025AT  26150.83335647  .00241269  00000+0  10228-2 0  9993,2 45572  53.0428 295.9635 0006551 304.3282 221.9570 15.84123107  5783
STARLINK-1321,45573,53.0429,0.0003609,15.61829871,379.9315546939333,384.8112896730645,1 45573U 20025AU  26150.81089623  .00106212  00000+0  11925-2 0  9995,2 45573  53.0429  21.1689 0003609 108.6056 251.5349 15.61829871338247
STARLINK-1331,45578,53.0471,0.000448,15.61662553,379.8253742952229,385.8832224985863,1 45578U 20025AZ  26150.83323373  .00103374  00000+0  11686-2 0  9995,2 45578  53.0471  27.9453 0004480  82.6748 277.4774 15.61662553338464
STARLINK-1333,45580,53.1607,0.0003286,15.34323388,460.68298176064036,465.17893162177734,1 45580U 20025BB  26150.13655881  .00051976  00000+0  15424-2 0  9997,2 45580  53.1607  58.7307 0003286  84.7630 275.3747 15.34323388337988
STARLINK-1335,45581,53.155,0.0004065,15.35911449,455.4356027376625,460.99355657192154,1 45581U 20025BC  26150.82624723  .00054129  00000+0  15261-2 0  9997,2 45581  53.1550  52.3283 0004065 103.1826 256.9630 15.35911449338123
STARLINK-1337,45582,53.0466,0.0005995,15.73065814,346.10716860888806,354.17437365647675,1 45582U 20025BD  26150.87836866  .00081572  00000+0  58273-3 0  9999,2 45582  53.0466  17.7388 0005995  85.5636 274.6067 15.73065814338595
STARLINK-1347,45586,53.0392,0.0003606,15.67550592,363.4813377226128,368.3451467573177,1 45586U 20025BH  26150.83948902  .00065127  00000+0  58777-3 0  9991,2 45586  53.0392 348.0881 0003606 113.8775 246.2618 15.67550592339000
STARLINK-1364,45589,53.044,0.0001361,15.68357062,362.6835734522829,364.5186745696392,1 45589U 20025BL  26150.85112822  .00060987  00000+0  53333-3 0  9992,2 45589  53.0440  24.7707 0001361 111.4379 248.6782 15.68357062338490
STARLINK-1365,45590,53.0464,0.0003948,15.57606526,391.9124767930316,397.2602191485894,1 45590U 20025BM  26150.72798361  .00094800  00000+0  12523-2 0  9994,2 45590  53.0464  58.8998 0003948  66.4539 293.6887 15.57606526338023
STARLINK-1443,45660,53.1355,0.0003818,15.31670872,468.2118912653459,473.441760042615,1 45660U 20035D   26150.70418422  .00047118  00000+0  15217-2 0  9991,2 45660  53.1355  44.6600 0003818  75.8215 284.3210 15.31670872331303
STARLINK-1446,45663,53.0224,0.0003387,15.46966989,423.30016190035894,427.90901645286704,1 45663U 20035G   26150.52079683  .00038933  00000+0  76416-3 0  9990,2 45663  53.0224 329.5155 0003387 150.1906 209.9294 15.46966989332326
STARLINK-1448,45665,53.0449,0.0005847,15.67196853,362.9841843448885,370.87186338379615,1 45665U 20035J   26150.87309147  .00064100  00000+0  58671-3 0  9999,2 45665  53.0449  11.9566 0005847  80.0042 280.1633 15.67196853331752
STARLINK-1451,45668,53.053,0.0002735,15.13782362,522.7897626693339,526.5656023006541,1 45668U 20035M   26150.70913068  .00027738  00000+0  15300-2 0  9994,2 45668  53.0530  54.6175 0002735  92.2980 267.8325 15.13782362331156
STARLINK-1452,45669,53.0269,8.74e-05,15.57142184,395.34065115279645,396.5247585372026,1 45669U 20035N   26150.83293616  .00096264  00000+0  12938-2 0  9993,2 45669  53.0269 346.7241 0000874 295.9133  64.1787 15.57142184332116
STARLINK-1453,45670,53.0407,0.0001567,15.67552516,364.8509320391331,366.9645156555871,1 45670U 20035P   26150.84306750  .00073552  00000+0  66255-3 0  9997,2 45670  53.0407 332.4219 0001567 192.3358 167.7619 15.67552516332207
STARLINK-1454,45671,53.0436,0.0002405,15.6569946,369.6046493575368,372.8510938607815,1 45671U 20035Q   26150.80617001  .00060641  00000+0  59040-3 0  9997,2 45671  53.0436  13.4250 0002405  52.5492 307.5741 15.65699460331723
STARLINK-1456,45673,53.0423,0.0005316,15.64731426,370.4218427902442,377.60072684666284,1 45673U 20035S   26150.83335647 -.00046830  00000+0 -46982-3 0  9992,2 45673  53.0423   7.8118 0005316 128.3063 238.1178 15.64731426  5887
STARLINK-1458,45675,53.0475,0.0003383,15.55361952,398.80726751432303,403.39409973106103,1 45675U 20035U   26150.81002998  .00104579  00000+0  14989-2 0  9996,2 45675  53.0475  22.0013 0003383  74.7962 285.3422 15.55361952331581
STARLINK-1460,45676,53.1589,0.0003859,15.34213315,460.618069238888,465.89825802617906,1 45676U 20035V   26150.69741668  .00055349  00000+0  16467-2 0  9990,2 45676  53.1589  43.2890 0003859 123.8673 236.2697 15.34213315331282
STARLINK-1392,45677,53.1537,0.0002967,15.37419344,451.7167846497632,455.7708227186704,1 45677U 20035W   26150.66763058  .00057745  00000+0  15497-2 0  9999,2 45677  53.1537  42.2572 0002967 128.0306 232.0966 15.37419344331333
STARLINK-1394,45679,53.0411,0.0005519,15.64342696,371.40269008114956,378.85694599490125,1 45679U 20035Y   26150.83335647  .00100673  00000+0  10251-2 0  9991,2 45679  53.0411 358.0785 0005519 135.0152 222.6301 15.64342696  5883
STARLINK-1402,45685,53.0416,0.0005585,15.56910766,392.82025701566454,400.3876426566303,1 45685U 20035AE  26150.80217302  .00052126  00000+0  71326-3 0  9992,2 45685  53.0416 348.6129 0005585 154.7196 205.4089 15.56910766332099
STARLINK-1404,45686,53.1585,0.0004514,15.43488408,432.7473888027007,438.899032080687,1 45686U 20035AF  26150.82348362  .00066896  00000+0  14662-2 0  9994,2 45686  53.1585  23.5178 0004514 139.0581 221.0765 15.43488408331617
STARLINK-1413,45689,53.1578,0.0002573,15.34211442,461.5034393096803,465.0240241262218,1 45689U 20035AJ  26150.86641093  .00047309  00000+0  14108-2 0  9991,2 45689  53.1578  27.1423 0002573 149.2169 210.8985 15.34211442331480
STARLINK-1417,45693,53.05,0.000585,15.16337047,512.888772973326,520.9559924510995,1 45693U 20035AN  26150.69026910  .00029089  00000+0  14916-2 0  9994,2 45693  53.0500  41.5163 0005850 110.4219 249.7403 15.16337047331326
